ONEWEB-0199             
1 48234U 21031AA  24317.79768530 -.00000032  00000+0 -12131-3 0  9997
2 48234  87.9031  45.3027 0001916  99.9450 260.1895 13.14505639171888
ONEWEB-0203             
1 48235U 21031AB  24317.94040995  .00000219  00000+0  55620-3 0  9998
2 48235  87.9032  45.2765 0001914  90.2155 269.9194 13.14505999171914
ONEWEB-0197             
1 48236U 21031AC  24318.14419144  .00000113  00000+0  27158-3 0  9996
2 48236  87.9029  45.2457 0001888 111.3279 248.8053 13.14503079171851
ONEWEB-0194             
1 48237U 21031AD  24317.74218420 -.00000143  00000+0 -41982-3 0  9992
2 48237  87.9030  45.3200 0001949  96.0097 264.1255 13.14505608171974
ONEWEB-0193             
1 48238U 21031AE  24317.75804616  .00000066  00000+0  14238-3 0  9998
2 48238  87.9028  45.3247 0001656  97.1949 262.9369 13.14505366171924
ONEWEB-0191             
1 48239U 21031AF  24317.76914841  .00000212  00000+0  53602-3 0  9993
2 48239  87.9027  45.3016 0001682  97.6911 262.4410 13.14502600171785
ONEWEB-0195             
1 48240U 21031AG  24317.74616552 -.00000134  00000+0 -39468-3 0  9990
2 48240  87.9028  45.3048 0001362  95.1585 264.9700 13.14501796171760
ONEWEB-0201             
1 48241U 21031AH  24317.81115948 -.00000187  00000+0 -53995-3 0  9991
2 48241  87.9036  45.3309 0001569 103.0132 257.1173 13.14506399172006
